NORAD_CAT_ID,OBJECT_NAME,OBJECT_TYPE,EPOCH,MEAN_MOTION,ECCENTRICITY,INCLINATION,RA_OF_ASC_NODE,ARG_OF_PERICENTER,MEAN_ANOMALY,BSTAR,MEAN_MOTION_DOT,MEAN_MOTION_DDOT,TLE_LINE0,TLE_LINE1,TLE_LINE2,SEMIMAJOR_AXIS,PERIOD,APOGEE,PERIGEE,DECAYED
50157.0,STARLINK-3313,PAYLOAD,2024-02-05 10:11:42,15.0885877,0.0001257,53.2167,85.5492,97.2708,262.8428,0.00015224,2.137e-05,0.0,0 STARLINK-3313,1 50157U 21125B   24036.42480033  .00002137  00000-0  15224-3 0  9998,2 50157  53.2167  85.5492 0001257  97.2708 262.8428 15.08858770118141,6917.823,95.436,540.558,538.818,0.0
50157.0,STARLINK-3313,PAYLOAD,2024-02-06 02:05:35,15.08838527,9.98e-05,53.2172,82.5796,107.8771,252.2331,7.9986e-05,9.85e-06,0.0,0 STARLINK-3313,1 50157U 21125B   24037.08721322  .00000985  00000-0  79986-4 0  9995,2 50157  53.2172  82.5796 0000998 107.8771 252.2331 15.08838527118245,6917.885,95.438,540.44,539.059,0.0
50157.0,STARLINK-3313,PAYLOAD,2024-02-06 08:27:08,15.08836416,0.0001419,53.2172,81.3854,95.6283,264.4871,-9.4263e-06,-4.38e-06,0.0,0 STARLINK-3313,1 50157U 21125B   24037.35217924 -.00000438  00000-0 -94263-5 0  9994,2 50157  53.2172  81.3854 0001419  95.6283 264.4871 15.08836416121410,6917.891,95.438,540.738,538.775,0.0
50157.0,STARLINK-3313,PAYLOAD,2024-02-07 11:28:42,15.08840414,0.0001557,53.2177,76.3309,106.5955,253.5208,-8.9034e-05,-1.705e-05,0.0,0 STARLINK-3313,1 50157U 21125B   24038.47826552 -.00001705  00000-0 -89034-4 0  9998,2 50157  53.2177  76.3309 0001557 106.5955 253.5208 15.08840414118451,6917.879,95.438,540.821,538.667,0.0
50157.0,STARLINK-3313,PAYLOAD,2024-02-07 13:04:05,15.08840695,0.0001542,53.2175,76.0332,105.6433,254.4729,-8.4232e-05,-1.628e-05,0.0,0 STARLINK-3313,1 50157U 21125B   24038.54450529 -.00001628  00000-0 -84232-4 0  9992,2 50157  53.2175  76.0332 0001542 105.6433 254.4729 15.08840695121595,6917.878,95.438,540.81,538.677,0.0
50157.0,STARLINK-3313,PAYLOAD,2024-02-07 19:25:37,15.08850312,0.0001584,53.2179,74.8433,92.6873,267.43,-0.00017007,-2.994e-05,0.0,0 STARLINK-3313,1 50157U 21125B   24038.80946178 -.00002994  00000-0 -17007-3 0  9993,2 50157  53.2179  74.8433 0001584  92.6873 267.4300 15.08850312121637,6917.849,95.437,540.81,538.618,0.0
50157.0,STARLINK-3313,PAYLOAD,2024-02-08 09:44:05,15.08837141,0.000157,53.217,72.1688,89.2236,270.8936,0.00016218,2.294e-05,0.0,0 STARLINK-3313,1 50157U 21125B   24039.40562349  .00002294  00000-0  16218-3 0  9998,2 50157  53.2170  72.1688 0001570  89.2236 270.8936 15.08837141121729,6917.889,95.438,540.84,538.668,0.0
50157.0,STARLINK-3313,PAYLOAD,2024-02-09 11:10:15,15.08844906,0.0001503,53.2161,67.4101,94.1861,265.9303,0.00018084,2.592e-05,0.0,0 STARLINK-3313,1 50157U 21125B   24040.46546034  .00002592  00000-0  18084-3 0  9993,2 50157  53.2161  67.4101 0001503  94.1861 265.9303 15.08844906118750,6917.865,95.437,540.77,538.691,0.0
50157.0,STARLINK-3313,PAYLOAD,2024-02-10 01:28:44,15.0883609,0.0001576,53.2159,64.7333,90.5743,269.543,1.6138e-05,-3.1e-07,0.0,0 STARLINK-3313,1 50157U 21125B   24041.06163136 -.00000031  00000-0  16138-4 0  9994,2 50157  53.2159  64.7333 0001576  90.5743 269.5430 15.08836090118849,6917.892,95.438,540.848,538.667,0.0
50157.0,STARLINK-3313,PAYLOAD,2024-02-10 07:50:17,15.08841432,0.0001717,53.2172,63.545,90.0276,270.0913,-2.0558e-07,-2.91e-06,0.0,0 STARLINK-3313,1 50157U 21125B   24041.32658948 -.00000291  00000-0 -20558-6 0  9995,2 50157  53.2172  63.5450 0001717  90.0276 270.0913 15.08841432122017,6917.876,95.437,540.929,538.553,0.0
50157.0,STARLINK-3313,PAYLOAD,2024-02-11 07:41:04,15.08844226,0.0001612,53.2169,59.0844,106.9935,253.1234,-2.0153e-05,-6.09e-06,0.0,0 STARLINK-3313,1 50157U 21125B   24042.32018760 -.00000609  00000-0 -20153-4 0  9990,2 50157  53.2169  59.0844 0001612 106.9935 253.1234 15.08844226119033,6917.867,95.437,540.848,538.617,0.0
50157.0,STARLINK-3313,PAYLOAD,2024-02-12 10:42:36,15.08848437,0.00017,53.217,54.0279,94.9446,265.1741,0.00013288,1.828e-05,0.0,0 STARLINK-3313,1 50157U 21125B   24043.44626064  .00001828  00000-0  13288-3 0  9998,2 50157  53.2170  54.0279 0001700  94.9446 265.1741 15.08848437119206,6917.855,95.437,540.896,538.544,0.0
50157.0,STARLINK-3313,PAYLOAD,2024-02-13 04:11:52,15.08835184,0.0001998,53.2166,50.7478,127.7929,232.3244,-8.7148e-05,-1.675e-05,0.0,0 STARLINK-3313,1 50157U 21125B   24044.17491534 -.00001675  00000-0 -87148-4 0  9990,2 50157  53.2166  50.7478 0001998 127.7929 232.3244 15.08835184119316,6917.895,95.438,541.142,538.378,0.0
50157.0,STARLINK-3313,PAYLOAD,2024-02-13 07:22:39,15.08828192,0.0001434,53.2182,50.1632,98.4138,261.7017,-4.598e-05,-1.019e-05,0.0,0 STARLINK-3313,1 50157U 21125B   24044.30740253 -.00001019  00000-0 -45980-4 0  9990,2 50157  53.2182  50.1632 0001434  98.4138 261.7017 15.08828192122466,6917.916,95.438,540.774,538.789,0.0
50157.0,STARLINK-3313,PAYLOAD,2024-02-13 16:54:58,15.08833672,0.0001531,53.2191,48.3797,103.5212,256.5951,-7.8782e-06,-4.13e-06,0.0,0 STARLINK-3313,1 50157U 21125B   24044.70484050 -.00000413  00000-0 -78782-5 0  9998,2 50157  53.2191  48.3797 0001531 103.5212 256.5951 15.08833672122521,6917.9,95.438,540.824,538.706,0.0
50157.0,STARLINK-3313,PAYLOAD,2024-02-14 10:24:11,15.08854888,0.0001468,53.2173,45.1068,103.7887,256.3269,9.8032e-05,1.273e-05,0.0,0 STARLINK-3313,1 50157U 21125B   24045.43346488  .00001273  00000-0  98032-4 0  9993,2 50157  53.2173  45.1068 0001468 103.7887 256.3269 15.08854888119502,6917.835,95.437,540.715,538.684,0.0
50157.0,STARLINK-3313,PAYLOAD,2024-02-14 16:45:44,15.08847583,0.0001372,53.2164,43.9161,91.0069,269.1081,6.2942e-05,7.14e-06,0.0,0 STARLINK-3313,1 50157U 21125B   24045.69843011  .00000714  00000-0  62942-4 0  9995,2 50157  53.2164  43.9161 0001372  91.0069 269.1081 15.08847583119549,6917.857,95.437,540.671,538.773,0.0
50157.0,STARLINK-3313,PAYLOAD,2024-02-15 03:53:27,15.08834544,0.0002034,53.2181,41.8358,81.1952,278.9271,0.00017948,2.569e-05,0.0,0 STARLINK-3313,1 50157U 21125B   24046.16212259  .00002569  00000-0  17948-3 0  9997,2 50157  53.2181  41.8358 0002034  81.1952 278.9271 15.08834544119610,6917.897,95.438,541.169,538.355,0.0
50157.0,STARLINK-3313,PAYLOAD,2024-02-15 08:39:36,15.08835379,0.0001536,53.2184,40.9456,84.8731,275.2436,0.0001835,2.633e-05,0.0,0 STARLINK-3313,1 50157U 21125B   24046.36084183  .00002633  00000-0  18350-3 0  9992,2 50157  53.2184  40.9456 0001536  84.8731 275.2436 15.08835379122774,6917.895,95.438,540.822,538.697,0.0
50157.0,STARLINK-3313,PAYLOAD,2024-02-15 16:36:32,15.08838547,0.0001284,53.2176,39.4561,90.1665,269.9474,0.00012729,1.738e-05,0.0,0 STARLINK-3313,1 50157U 21125B   24046.69204082  .00001738  00000-0  12729-3 0  9999,2 50157  53.2176  39.4561 0001284  90.1665 269.9474 15.08838547122829,6917.885,95.438,540.638,538.862,0.0
50157.0,STARLINK-3313,PAYLOAD,2024-02-16 05:19:37,15.08841756,0.0001203,53.2167,37.0792,95.8334,264.2795,9.617e-05,1.243e-05,0.0,0 STARLINK-3313,1 50157U 21125B   24047.22195941  .00001243  00000-0  96170-4 0  9996,2 50157  53.2167  37.0792 0001203  95.8334 264.2795 15.08841756119775,6917.875,95.437,540.572,538.908,0.0
50157.0,STARLINK-3313,PAYLOAD,2024-02-16 06:55:00,15.08851794,0.0001366,53.2182,36.7809,94.1314,265.9834,4.3996e-05,4.13e-06,0.0,0 STARLINK-3313,1 50157U 21125B   24047.28819454  .00000413  00000-0  43996-4 0  9990,2 50157  53.2182  36.7809 0001366  94.1314 265.9834 15.08851794119783,6917.844,95.437,540.654,538.764,0.0
50157.0,STARLINK-3313,PAYLOAD,2024-02-16 08:30:22,15.08855352,0.000138,53.2183,36.4832,92.5148,267.6002,7.5371e-05,9.12e-06,0.0,0 STARLINK-3313,1 50157U 21125B   24047.35443096  .00000912  00000-0  75371-4 0  9999,2 50157  53.2183  36.4832 0001380  92.5148 267.6002 15.08855352122920,6917.833,95.437,540.653,538.744,0.0
50157.0,STARLINK-3313,PAYLOAD,2024-02-16 22:48:52,15.08835571,0.0001556,53.219,33.8086,84.128,275.989,1.2423e-05,-9e-07,0.0,0 STARLINK-3313,1 50157U 21125B   24047.95060197 -.00000090  00000-0  12423-4 0  9999,2 50157  53.2190  33.8086 0001556  84.1280 275.9890 15.08835571123018,6917.894,95.438,540.835,538.683,0.0
50157.0,STARLINK-3313,PAYLOAD,2024-02-17 03:35:01,15.08838884,0.0001805,53.2192,32.9147,99.6279,260.4917,0.00011447,1.534e-05,0.0,0 STARLINK-3313,1 50157U 21125B   24048.14932152  .00001534  00000-0  11447-3 0  9997,2 50157  53.2192  32.9147 0001805  99.6279 260.4917 15.08838884119917,6917.884,95.438,540.997,538.5,0.0
50157.0,STARLINK-3313,PAYLOAD,2024-02-17 05:10:24,15.08841269,0.0001731,53.2186,32.6178,94.5472,265.5718,3.0852e-05,2.03e-06,0.0,0 STARLINK-3313,1 50157U 21125B   24048.21556001  .00000203  00000-0  30852-4 0  9994,2 50157  53.2186  32.6178 0001731  94.5472 265.5718 15.08841269123054,6917.877,95.437,540.939,538.544,0.0
50157.0,STARLINK-3313,PAYLOAD,2024-02-17 22:39:38,15.08843882,0.0001558,53.217,29.3483,93.0236,267.0934,0.00013771,1.905e-05,0.0,0 STARLINK-3313,1 50157U 21125B   24048.94419874  .00001905  00000-0  13771-3 0  9990,2 50157  53.2170  29.3483 0001558  93.0236 267.0934 15.08843882123160,6917.869,95.437,540.811,538.656,0.0
50157.0,STARLINK-3313,PAYLOAD,2024-02-18 08:11:56,15.08857846,0.0001687,53.218,27.5617,104.3331,255.7849,0.00023722,3.491e-05,0.0,0 STARLINK-3313,1 50157U 21125B   24049.34163087  .00003491  00000-0  23722-3 0  9996,2 50157  53.2180  27.5617 0001687 104.3331 255.7849 15.08857846123226,6917.826,95.436,540.858,538.524,0.0
50157.0,STARLINK-3313,PAYLOAD,2024-02-19 03:16:34,15.0884553,0.0001664,53.2182,23.9942,103.0887,257.0291,9.2159e-05,1.179e-05,0.0,0 STARLINK-3313,1 50157U 21125B   24050.13651502  .00001179  00000-0  92159-4 0  9991,2 50157  53.2182  23.9942 0001664 103.0887 257.0291 15.08845530120215,6917.863,95.437,540.88,538.577,0.0
50157.0,STARLINK-3313,PAYLOAD,2024-02-19 04:51:58,15.08845744,0.0001686,53.2184,23.6971,104.4996,255.6183,0.00010433,1.373e-05,0.0,0 STARLINK-3313,1 50157U 21125B   24050.20275471  .00001373  00000-0  10433-3 0  9996,2 50157  53.2184  23.6971 0001686 104.4996 255.6183 15.08845744123355,6917.863,95.437,540.894,538.561,0.0
